38040,GLOBALSTAR M084,2011,114.08,700.0,+,52.0,Active,1,LEO,Kazakhstan,Globalstar,Commercial,Communications,Soyuz,1 38040U 11080A   25064.28191706 -.00000080  00000+0  13111-3 0  9994,2 38040  52.0038   4.7979 0000558 106.5442  49.6423 12.62262910609544,12.6226291,5.58e-05,LEO
38041,GLOBALSTAR M080,2011,114.08,700.0,+,52.01,Active,1,LEO,Kazakhstan,Globalstar,Commercial,Communications,Soyuz,1 38041U 11080B   25064.25412464 -.00000087  00000+0  93354-4 0  9994,2 38041  52.0090   6.4550 0000843 106.8130  41.6623 12.62277561609666,12.62277561,8.43e-05,LEO
38042,GLOBALSTAR M082,2011,114.08,700.0,+,52.01,Active,1,LEO,Kazakhstan,Globalstar,Commercial,Communications,Soyuz,1 38042U 11080C   25064.43019690 -.00000072  00000+0  17878-3 0  9999,2 38042  52.0094 321.3546 0000650  36.6369 134.0010 12.62263393610392,12.62263393,6.5e-05,LEO
38043,GLOBALSTAR M092,2011,114.08,700.0,+,52.01,Active,1,LEO,Kazakhstan,Globalstar,Commercial,Communications,Soyuz,1 38043U 11080D   25064.55578697 -.00000113  00000+0 -51202-4 0  9997,2 38043  52.0095  51.3386 0000280 109.5555  32.3211 12.62273046608860,12.62273046,2.8e-05,LEO
38044,GLOBALSTAR M090,2011,114.08,700.0,+,51.99,Active,1,LEO,Kazakhstan,Globalstar,Commercial,Communications,Soyuz,1 38044U 11080E   25064.45716009 -.00000077  00000+0  15100-3 0  9992,2 38044  51.9900 315.2159 0000746  61.8160 110.3985 12.62267534610518,12.62267534,7.46e-05,LEO
38045,GLOBALSTAR M086,2011,114.08,700.0,+,51.99,Active,1,LEO,Kazakhstan,Globalstar,Commercial,Communications,Soyuz,1 38045U 11080F   25064.24087646 -.00000077  00000+0  14959-3 0  9999,2 38045  51.9914 316.4172 0001596  83.6694  65.6620 12.62267509610431,12.62267509,0.0001596,LEO
39072,GLOBALSTAR M097,2013,114.08,700.0,+,52.0,Active,1,LEO,Kazakhstan,Globalstar,Commercial,Communications,Soyuz,1 39072U 13005A   25064.47222531 -.00000086  00000+0  10089-3 0  9998,2 39072  52.0025 230.1523 0001025  86.4233 273.6751 12.62270785557713,12.62270785,0.0001025,LEO
39073,GLOBALSTAR M093,2013,114.08,700.0,+,51.98,Active,1,LEO,Kazakhstan,Globalstar,Commercial,Communications,Soyuz,1 39073U 13005B   25064.60370491 -.00000085  00000+0  10576-3 0  9993,2 39073  51.9792 223.2170 0000987  87.5484 272.5495 12.62262236557681,12.62262236,9.87e-05,LEO
